[Satellite]
VERSION=1.1
NAME=GORIZONT 19 [-]
NICKNAME=GORIZONT 19 [-]
TLE1=1 20263U 89081A   17185.62565153  .00000115  00000-0  00000-0 0  9991
TLE2=2 20263  14.8968   1.3215 0006258 230.7990 310.9335  1.00282098101707
